{"type":"FeatureCollection","name":"Astana mapped schools","license":"ODbL-1.0","attribution":"© OpenStreetMap contributors","source_snapshot":"2026-09-22T08:45:51Z","features":[{"type":"Feature","id":"node/453247472","geometry":{"type":"Point","coordinates":[71.4878091,51.1521854]},"properties":{"name":"Мирас","osm_type":"node","osm_id":453247472,"osm_version":null,"osm_updated_at":null,"osm_url":"https://www.openstreetmap.org/node/453247472","source_tag":"amenity=school"}},{"type":"Feature","id":"node/984465153","geometry":{"type":"Point","coordinates":[71.4390165,51.1530735]},"properties":{"name":"Школа каратэ","osm_type":"node","osm_id":984465153,"osm_version":null,"osm_updated_at":null,"osm_url":"https://www.openstreetmap.org/node/984465153","source_tag":"amenity=school"}},{"type":"Feature","id":"node/2389187209","geometry":{"type":"Point","coordinates":[71.4299211,51.1195956]},"properties":{"name":"ТОО Дошкольный учебно-воспитательный центр «Алпамыс»","osm_type":"node","osm_id":2389187209,"osm_version":null,"osm_updated_at":null,"osm_url":"https://www.openstreetmap.org/node/2389187209","source_tag":"amenity=school"}},{"type":"Feature","id":"node/4181740589","geometry":{"type":"Point","coordinates":[71.4193671,51.187075]},"properties":{"name":"Колледж Менеджмента и Бизнеса г.Астаны","addr:street":"Әлия Молдағұлова көшесі","addr:housenumber":"37/1","osm_type":"node","osm_id":4181740589,"osm_version":null,"osm_updated_at":null,"osm_url":"https://www.openstreetmap.org/node/4181740589","source_tag":"amenity=school"}},{"type":"Feature","id":"node/4464718992","geometry":{"type":"Point","coordinates":[71.5792591,51.146958]},"properties":{"name":"Школа №29","name:kk":"Школа №29","osm_type":"node","osm_id":4464718992,"osm_version":null,"osm_updated_at":null,"osm_url":"https://www.openstreetmap.org/node/4464718992","source_tag":"amenity=school"}},{"type":"Feature","id":"node/4620817989","geometry":{"type":"Point","coordinates":[71.4802747,51.1391927]},"properties":{"name":"Центр немецкого языка","name:ru":"Центр немецкого языка","osm_type":"node","osm_id":4620817989,"osm_version":null,"osm_updated_at":null,"osm_url":"https://www.openstreetmap.org/node/4620817989","source_tag":"amenity=school"}},{"type":"Feature","id":"node/4897291361","geometry":{"type":"Point","coordinates":[71.448327,51.1744077]},"properties":{"name":"Казахско-Турецкий лицей-интернат для одаренных юношей","osm_type":"node","osm_id":4897291361,"osm_version":null,"osm_updated_at":null,"osm_url":"https://www.openstreetmap.org/node/4897291361","source_tag":"amenity=school"}},{"type":"Feature","id":"node/4897352993","geometry":{"type":"Point","coordinates":[71.4158506,51.1707012]},"properties":{"name":"Школа гимназия №2 им. Гафу Каирбекова","osm_type":"node","osm_id":4897352993,"osm_version":null,"osm_updated_at":null,"osm_url":"https://www.openstreetmap.org/node/4897352993","source_tag":"amenity=school"}},{"type":"Feature","id":"node/4897352994","geometry":{"type":"Point","coordinates":[71.4175272,51.1707837]},"properties":{"name":"КГУ «Комплекс «Детский сад-школа-гимназия №47» Управления образования города Астаны","addr:street":"Сәкен Сейфуллин көшесі","addr:housenumber":"21","addr:postcode":"010000","osm_type":"node","osm_id":4897352994,"osm_version":null,"osm_updated_at":null,"osm_url":"https://www.openstreetmap.org/node/4897352994","source_tag":"amenity=school"}},{"type":"Feature","id":"node/4899639038","geometry":{"type":"Point","coordinates":[71.3776088,51.1857244]},"properties":{"name":"Школа-гимназия №58","osm_type":"node","osm_id":4899639038,"osm_version":null,"osm_updated_at":null,"osm_url":"https://www.openstreetmap.org/node/4899639038","source_tag":"amenity=school"}},{"type":"Feature","id":"node/4900099965","geometry":{"type":"Point","coordinates":[71.3366029,51.1973272]},"properties":{"name":"Школа №68","osm_type":"node","osm_id":4900099965,"osm_version":null,"osm_updated_at":null,"osm_url":"https://www.openstreetmap.org/node/4900099965","source_tag":"amenity=school"}},{"type":"Feature","id":"node/4900149832","geometry":{"type":"Point","coordinates":[71.3449427,51.1861884]},"properties":{"name":"Школа №40","osm_type":"node","osm_id":4900149832,"osm_version":null,"osm_updated_at":null,"osm_url":"https://www.openstreetmap.org/node/4900149832","source_tag":"amenity=school"}},{"type":"Feature","id":"node/4903360683","geometry":{"type":"Point","coordinates":[71.4009806,51.2075119]},"properties":{"name":"Школа №49","osm_type":"node","osm_id":4903360683,"osm_version":null,"osm_updated_at":null,"osm_url":"https://www.openstreetmap.org/node/4903360683","source_tag":"amenity=school"}},{"type":"Feature","id":"node/4903508195","geometry":{"type":"Point","coordinates":[71.5198481,51.1215394]},"properties":{"name":"Школа №57","osm_type":"node","osm_id":4903508195,"osm_version":null,"osm_updated_at":null,"osm_url":"https://www.openstreetmap.org/node/4903508195","source_tag":"amenity=school"}},{"type":"Feature","id":"node/4908782193","geometry":{"type":"Point","coordinates":[71.5951096,51.1263343]},"properties":{"name":"Школа №44","osm_type":"node","osm_id":4908782193,"osm_version":null,"osm_updated_at":null,"osm_url":"https://www.openstreetmap.org/node/4908782193","source_tag":"amenity=school"}},{"type":"Feature","id":"node/4908858029","geometry":{"type":"Point","coordinates":[71.6858661,51.1084665]},"properties":{"name":"Школа №42","osm_type":"node","osm_id":4908858029,"osm_version":null,"osm_updated_at":null,"osm_url":"https://www.openstreetmap.org/node/4908858029","source_tag":"amenity=school"}},{"type":"Feature","id":"node/4919306724","geometry":{"type":"Point","coordinates":[71.253773,51.2474076]},"properties":{"name":"Средняя школа","osm_type":"node","osm_id":4919306724,"osm_version":null,"osm_updated_at":null,"osm_url":"https://www.openstreetmap.org/node/4919306724","source_tag":"amenity=school"}},{"type":"Feature","id":"node/4920065838","geometry":{"type":"Point","coordinates":[71.4165375,51.1631176]},"properties":{"name":"Школа лицей № 1","osm_type":"node","osm_id":4920065838,"osm_version":null,"osm_updated_at":null,"osm_url":"https://www.openstreetmap.org/node/4920065838","source_tag":"amenity=school"}},{"type":"Feature","id":"node/4940319493","geometry":{"type":"Point","coordinates":[71.3995403,51.1933707]},"properties":{"name":"Спорткомплекс Жас батыр","osm_type":"node","osm_id":4940319493,"osm_version":null,"osm_updated_at":null,"osm_url":"https://www.openstreetmap.org/node/4940319493","source_tag":"amenity=school"}},{"type":"Feature","id":"node/4958580147","geometry":{"type":"Point","coordinates":[71.4002028,51.208789]},"properties":{"name":"Профлицей №3","osm_type":"node","osm_id":4958580147,"osm_version":null,"osm_updated_at":null,"osm_url":"https://www.openstreetmap.org/node/4958580147","source_tag":"amenity=school"}},{"type":"Feature","id":"node/4959651310","geometry":{"type":"Point","coordinates":[71.4260405,51.1988418]},"properties":{"name":"Школа № 34","osm_type":"node","osm_id":4959651310,"osm_version":null,"osm_updated_at":null,"osm_url":"https://www.openstreetmap.org/node/4959651310","source_tag":"amenity=school"}},{"type":"Feature","id":"node/4959651311","geometry":{"type":"Point","coordinates":[71.4246833,51.1982032]},"properties":{"name":"Школа № 23","osm_type":"node","osm_id":4959651311,"osm_version":null,"osm_updated_at":null,"osm_url":"https://www.openstreetmap.org/node/4959651311","source_tag":"amenity=school"}},{"type":"Feature","id":"node/4961680234","geometry":{"type":"Point","coordinates":[71.4551451,51.1993511]},"properties":{"name":"Школа № 12","osm_type":"node","osm_id":4961680234,"osm_version":null,"osm_updated_at":null,"osm_url":"https://www.openstreetmap.org/node/4961680234","source_tag":"amenity=school"}},{"type":"Feature","id":"node/4961837246","geometry":{"type":"Point","coordinates":[71.4725071,51.1838927]},"properties":{"name":"Профессиональный лицей №1","osm_type":"node","osm_id":4961837246,"osm_version":null,"osm_updated_at":null,"osm_url":"https://www.openstreetmap.org/node/4961837246","source_tag":"amenity=school"}},{"type":"Feature","id":"node/4986870862","geometry":{"type":"Point","coordinates":[71.5197569,51.1233306]},"properties":{"name":"Школа №13","osm_type":"node","osm_id":4986870862,"osm_version":null,"osm_updated_at":null,"osm_url":"https://www.openstreetmap.org/node/4986870862","source_tag":"amenity=school"}},{"type":"Feature","id":"node/5207025023","geometry":{"type":"Point","coordinates":[71.3786637,51.1825148]},"properties":{"name":"Step by step, языковой центр","name:ru":"Step by step, языковой центр","osm_type":"node","osm_id":5207025023,"osm_version":null,"osm_updated_at":null,"osm_url":"https://www.openstreetmap.org/node/5207025023","source_tag":"amenity=school"}},{"type":"Feature","id":"node/5208021421","geometry":{"type":"Point","coordinates":[71.3992067,51.1928562]},"properties":{"osm_type":"node","osm_id":5208021421,"osm_version":null,"osm_updated_at":null,"osm_url":"https://www.openstreetmap.org/node/5208021421","source_tag":"amenity=school"}},{"type":"Feature","id":"node/8520896896","geometry":{"type":"Point","coordinates":[71.48338,51.141068]},"properties":{"name":"Бэби-клуб","operator":"Бэби-клуб","osm_type":"node","osm_id":8520896896,"osm_version":null,"osm_updated_at":null,"osm_url":"https://www.openstreetmap.org/node/8520896896","source_tag":"amenity=school"}},{"type":"Feature","id":"node/10604450011","geometry":{"type":"Point","coordinates":[71.5961141,51.1257176]},"properties":{"name":"Школа №44 новый корпус","osm_type":"node","osm_id":10604450011,"osm_version":null,"osm_updated_at":null,"osm_url":"https://www.openstreetmap.org/node/10604450011","source_tag":"amenity=school"}},{"type":"Feature","id":"node/11827288556","geometry":{"type":"Point","coordinates":[71.3967953,51.0849367]},"properties":{"name":"Жаратылыстану-математика бағытындағы Назарбаев Зияткерлік мектебі","name:ru":"Назарбаев Интеллектуальная школа естественно-математического направления","osm_type":"node","osm_id":11827288556,"osm_version":null,"osm_updated_at":null,"osm_url":"https://www.openstreetmap.org/node/11827288556","source_tag":"amenity=school"}},{"type":"Feature","id":"node/12791644001","geometry":{"type":"Point","coordinates":[71.4125811,51.1156605]},"properties":{"name":"Детская академия наук","addr:street":"проспект Кабанбай Батыра","addr:housenumber":"46","osm_type":"node","osm_id":12791644001,"osm_version":null,"osm_updated_at":null,"osm_url":"https://www.openstreetmap.org/node/12791644001","source_tag":"amenity=school"}},{"type":"Feature","id":"node/13389139078","geometry":{"type":"Point","coordinates":[71.393251,51.0854336]},"properties":{"name":"Назарбаев Зияткерлік мектебі","name:ru":"Назарбаев Интеллектуальная школа","osm_type":"node","osm_id":13389139078,"osm_version":null,"osm_updated_at":null,"osm_url":"https://www.openstreetmap.org/node/13389139078","source_tag":"amenity=school"}},{"type":"Feature","id":"node/13391076979","geometry":{"type":"Point","coordinates":[71.4002313,51.1024285]},"properties":{"name":"Alpamys School","osm_type":"node","osm_id":13391076979,"osm_version":null,"osm_updated_at":null,"osm_url":"https://www.openstreetmap.org/node/13391076979","source_tag":"amenity=school"}},{"type":"Feature","id":"way/240376652","geometry":{"type":"Point","coordinates":[71.4295025,51.1741712]},"properties":{"addr:street":"Шәкен Айманов көшесі","addr:housenumber":"3","osm_type":"way","osm_id":240376652,"osm_version":null,"osm_updated_at":null,"osm_url":"https://www.openstreetmap.org/way/240376652","source_tag":"amenity=school"}},{"type":"Feature","id":"way/260543959","geometry":{"type":"Point","coordinates":[71.399649,51.1957795]},"properties":{"name":"№36 орта мектеп","name:ru":"Средняя школа №36","name:kk":"№36 орта мектеп","osm_type":"way","osm_id":260543959,"osm_version":null,"osm_updated_at":null,"osm_url":"https://www.openstreetmap.org/way/260543959","source_tag":"amenity=school"}},{"type":"Feature","id":"way/267026668","geometry":{"type":"Point","coordinates":[71.4168399,51.1206187]},"properties":{"name":"Кәрім Мыңбаев атындағы №59 мектеп-лицей","name:ru":"Школа-лицей №59 имени Карима Мынбаева","osm_type":"way","osm_id":267026668,"osm_version":null,"osm_updated_at":null,"osm_url":"https://www.openstreetmap.org/way/267026668","source_tag":"amenity=school"}},{"type":"Feature","id":"way/270565861","geometry":{"type":"Point","coordinates":[71.4317185,51.1188868]},"properties":{"name":"Республикалық физика-математика мектебі","name:ru":"Республиканская физико-математическая школа","osm_type":"way","osm_id":270565861,"osm_version":null,"osm_updated_at":null,"osm_url":"https://www.openstreetmap.org/way/270565861","source_tag":"amenity=school"}},{"type":"Feature","id":"way/424894606","geometry":{"type":"Point","coordinates":[71.42869,51.0428603]},"properties":{"name":"Школа №24","osm_type":"way","osm_id":424894606,"osm_version":null,"osm_updated_at":null,"osm_url":"https://www.openstreetmap.org/way/424894606","source_tag":"amenity=school"}},{"type":"Feature","id":"way/426394353","geometry":{"type":"Point","coordinates":[71.4849892,51.1580913]},"properties":{"name":"№32 мектеп-гимназия","name:ru":"Школа-гимназия №32","name:kk":"№32 мектеп-гимназия","osm_type":"way","osm_id":426394353,"osm_version":null,"osm_updated_at":null,"osm_url":"https://www.openstreetmap.org/way/426394353","source_tag":"amenity=school"}},{"type":"Feature","id":"way/501653304","geometry":{"type":"Point","coordinates":[71.3858664,51.1723006]},"properties":{"name":"М. Жұмабаев ат. №65 мектеп-гимназия","name:ru":"Школа-гимназия №65 им. М. Жумабаева","name:kk":"М. Жұмабаев ат. №65 мектеп-гимназия","addr:street":"Шаймерден Қосшығұлұлы көшесі","addr:housenumber":"18Т","osm_type":"way","osm_id":501653304,"osm_version":null,"osm_updated_at":null,"osm_url":"https://www.openstreetmap.org/way/501653304","source_tag":"amenity=school"}},{"type":"Feature","id":"way/1012114421","geometry":{"type":"Point","coordinates":[71.3570667,51.1478537]},"properties":{"name":"Қайым Мұхамедханов атындағы №90 гимназия","name:ru":"Гимназия №90 имени Кайыма Мухамедханова","addr:street":"Қорғалжын тас жолы","osm_type":"way","osm_id":1012114421,"osm_version":null,"osm_updated_at":null,"osm_url":"https://www.openstreetmap.org/way/1012114421","source_tag":"amenity=school"}},{"type":"Feature","id":"way/1103312560","geometry":{"type":"Point","coordinates":[71.6624298,51.2681478]},"properties":{"name":"Школа №2","addr:street":"улица Жибек Жолы","addr:housenumber":"167","osm_type":"way","osm_id":1103312560,"osm_version":null,"osm_updated_at":null,"osm_url":"https://www.openstreetmap.org/way/1103312560","source_tag":"amenity=school"}},{"type":"Feature","id":"way/1163895965","geometry":{"type":"Point","coordinates":[71.3884514,51.1983155]},"properties":{"name":"№26 мектеп-гимназия","name:ru":"Школа-гимназия №26","name:kk":"№26 мектеп-гимназия","osm_type":"way","osm_id":1163895965,"osm_version":null,"osm_updated_at":null,"osm_url":"https://www.openstreetmap.org/way/1163895965","source_tag":"amenity=school"}},{"type":"Feature","id":"way/1165427367","geometry":{"type":"Point","coordinates":[71.3397988,51.1787963]},"properties":{"name":"Школа №41","osm_type":"way","osm_id":1165427367,"osm_version":null,"osm_updated_at":null,"osm_url":"https://www.openstreetmap.org/way/1165427367","source_tag":"amenity=school"}},{"type":"Feature","id":"way/1177778801","geometry":{"type":"Point","coordinates":[71.4279914,51.0816918]},"properties":{"name":"Білім-Инновация, лицей","osm_type":"way","osm_id":1177778801,"osm_version":null,"osm_updated_at":null,"osm_url":"https://www.openstreetmap.org/way/1177778801","source_tag":"amenity=school"}},{"type":"Feature","id":"way/1177778802","geometry":{"type":"Point","coordinates":[71.4347231,51.0802928]},"properties":{"name":"Ә. Кекілбаев ат. Binom School","name:ru":"Binom School им. А. Кекилбаева","name:kk":"Ә. Кекілбаев ат. Binom School","osm_type":"way","osm_id":1177778802,"osm_version":null,"osm_updated_at":null,"osm_url":"https://www.openstreetmap.org/way/1177778802","source_tag":"amenity=school"}},{"type":"Feature","id":"way/1208979189","geometry":{"type":"Point","coordinates":[71.3949124,51.1302774]},"properties":{"name":"№101 жалпы орта білім беретін мектеп","name:ru":"Общеобразовательная школа №101","osm_type":"way","osm_id":1208979189,"osm_version":null,"osm_updated_at":null,"osm_url":"https://www.openstreetmap.org/way/1208979189","source_tag":"amenity=school"}},{"type":"Feature","id":"way/1254558143","geometry":{"type":"Point","coordinates":[71.6344833,51.2176618]},"properties":{"osm_type":"way","osm_id":1254558143,"osm_version":null,"osm_updated_at":null,"osm_url":"https://www.openstreetmap.org/way/1254558143","source_tag":"amenity=school"}},{"type":"Feature","id":"way/1295427391","geometry":{"type":"Point","coordinates":[71.3947469,51.1200632]},"properties":{"name":"Ы. Алтынсарин атындағы Binom school","name:ru":"Binom school имени Ы. Алтынсарина","addr:street":"улица Толе Би","addr:housenumber":"42","osm_type":"way","osm_id":1295427391,"osm_version":null,"osm_updated_at":null,"osm_url":"https://www.openstreetmap.org/way/1295427391","source_tag":"amenity=school"}},{"type":"Feature","id":"way/1295427393","geometry":{"type":"Point","coordinates":[71.3901621,51.1327738]},"properties":{"name":"Quantum STEM School","addr:street":"Е-899 көшесі","addr:housenumber":"2","osm_type":"way","osm_id":1295427393,"osm_version":null,"osm_updated_at":null,"osm_url":"https://www.openstreetmap.org/way/1295427393","source_tag":"amenity=school"}},{"type":"Feature","id":"way/1327900715","geometry":{"type":"Point","coordinates":[71.2101554,51.1316015]},"properties":{"name":"IT мектеп-лицей","addr:street":"Бөгенбай батыр көшесі","addr:housenumber":"2А","osm_type":"way","osm_id":1327900715,"osm_version":null,"osm_updated_at":null,"osm_url":"https://www.openstreetmap.org/way/1327900715","source_tag":"amenity=school"}},{"type":"Feature","id":"way/1372003435","geometry":{"type":"Point","coordinates":[71.4204936,51.0717985]},"properties":{"name":"ЖОББМ №103","osm_type":"way","osm_id":1372003435,"osm_version":null,"osm_updated_at":null,"osm_url":"https://www.openstreetmap.org/way/1372003435","source_tag":"amenity=school"}},{"type":"Feature","id":"way/1385141128","geometry":{"type":"Point","coordinates":[71.4650376,51.1264416]},"properties":{"name":"№102 жалпы орта білім беретін мектеп","name:ru":"Общеобразовательная школа №102","addr:street":"Ахмет Байтұрсынұлы көшесі","osm_type":"way","osm_id":1385141128,"osm_version":null,"osm_updated_at":null,"osm_url":"https://www.openstreetmap.org/way/1385141128","source_tag":"amenity=school"}},{"type":"Feature","id":"way/1419934933","geometry":{"type":"Point","coordinates":[71.4267663,51.0797946]},"properties":{"name":"Kazakhstan International School Astana","addr:street":"Хусейн бен Талал көшесі","addr:housenumber":"35","osm_type":"way","osm_id":1419934933,"osm_version":null,"osm_updated_at":null,"osm_url":"https://www.openstreetmap.org/way/1419934933","source_tag":"amenity=school"}},{"type":"Feature","id":"way/1424119031","geometry":{"type":"Point","coordinates":[71.4144709,51.1237271]},"properties":{"name":"№99 жалпы орта білім беретін мектеп","name:ru":"Общеобразовательная школа №99","operator":"Астана қаласының Білім басқармасы","operator:type":"government","addr:street":"Қабанбай Батыр даңғылы","addr:housenumber":"38А","osm_type":"way","osm_id":1424119031,"osm_version":null,"osm_updated_at":null,"osm_url":"https://www.openstreetmap.org/way/1424119031","source_tag":"amenity=school"}},{"type":"Feature","id":"way/1425752358","geometry":{"type":"Point","coordinates":[71.3744564,51.1345933]},"properties":{"name":"New Generation School Astana","addr:street":"Күлтегін көшесі","addr:housenumber":"12","osm_type":"way","osm_id":1425752358,"osm_version":null,"osm_updated_at":null,"osm_url":"https://www.openstreetmap.org/way/1425752358","source_tag":"amenity=school"}},{"type":"Feature","id":"way/1430229102","geometry":{"type":"Point","coordinates":[71.5057229,51.1102274]},"properties":{"name":"№113 жалпы орта білім беретін мектеп","name:ru":"Общеобразовательная школа №113","name:kk":"№113 жалпы орта білім беретін мектеп","operator":"Астана қаласының Білім басқармасы","operator:type":"government","addr:street":"Шәмші Қалдаяқов көшесі","addr:housenumber":"38","osm_type":"way","osm_id":1430229102,"osm_version":null,"osm_updated_at":null,"osm_url":"https://www.openstreetmap.org/way/1430229102","source_tag":"amenity=school"}},{"type":"Feature","id":"way/1431634806","geometry":{"type":"Point","coordinates":[71.4673188,51.0871094]},"properties":{"name":"№109 жайлы мектеп","name:ru":"Комфортная школа №109","osm_type":"way","osm_id":1431634806,"osm_version":null,"osm_updated_at":null,"osm_url":"https://www.openstreetmap.org/way/1431634806","source_tag":"amenity=school"}},{"type":"Feature","id":"way/1443249141","geometry":{"type":"Point","coordinates":[71.4204101,51.1775188]},"properties":{"name":"№6 гимназия","name:ru":"Гимназия №6","name:kk":"№6 гимназия","osm_type":"way","osm_id":1443249141,"osm_version":null,"osm_updated_at":null,"osm_url":"https://www.openstreetmap.org/way/1443249141","source_tag":"amenity=school"}},{"type":"Feature","id":"way/1454112385","geometry":{"type":"Point","coordinates":[71.3919497,51.1362111]},"properties":{"name":"№117 жалпы орта білім беретін мектеп","name:ru":"Общеобразовательная школа №117","operator":"Астана қаласының Білім басқармасы","osm_type":"way","osm_id":1454112385,"osm_version":null,"osm_updated_at":null,"osm_url":"https://www.openstreetmap.org/way/1454112385","source_tag":"amenity=school"}},{"type":"Feature","id":"way/1454504438","geometry":{"type":"Point","coordinates":[71.414951,51.113221]},"properties":{"name":"Дулат Бабатайұлы атындағы № 89 мектеп-лицей","name:ru":"Школа-лицей № 89 имени Дулата Бабатайулы","osm_type":"way","osm_id":1454504438,"osm_version":null,"osm_updated_at":null,"osm_url":"https://www.openstreetmap.org/way/1454504438","source_tag":"amenity=school"}},{"type":"Feature","id":"way/1455752636","geometry":{"type":"Point","coordinates":[71.3762722,51.13859]},"properties":{"name":"№115 жалпы орта білім беретін мектеп","name:ru":"Общеобразовательная школа №115","osm_type":"way","osm_id":1455752636,"osm_version":null,"osm_updated_at":null,"osm_url":"https://www.openstreetmap.org/way/1455752636","source_tag":"amenity=school"}},{"type":"Feature","id":"way/1455752637","geometry":{"type":"Point","coordinates":[71.3723962,51.1408859]},"properties":{"name":"№81 \"Astana English School\" халықаралық мектебі","name:ru":"Международная школа №81 \"Astana English School\"","osm_type":"way","osm_id":1455752637,"osm_version":null,"osm_updated_at":null,"osm_url":"https://www.openstreetmap.org/way/1455752637","source_tag":"amenity=school"}},{"type":"Feature","id":"way/1455752641","geometry":{"type":"Point","coordinates":[71.3715311,51.1382593]},"properties":{"name":"Neotech Digital School","osm_type":"way","osm_id":1455752641,"osm_version":null,"osm_updated_at":null,"osm_url":"https://www.openstreetmap.org/way/1455752641","source_tag":"amenity=school"}},{"type":"Feature","id":"way/1455752642","geometry":{"type":"Point","coordinates":[71.3695593,51.1343415]},"properties":{"name":"№71 мектеп-лицей","name:ru":"Школа-лицей №71","osm_type":"way","osm_id":1455752642,"osm_version":null,"osm_updated_at":null,"osm_url":"https://www.openstreetmap.org/way/1455752642","source_tag":"amenity=school"}},{"type":"Feature","id":"way/1455980758","geometry":{"type":"Point","coordinates":[71.4123136,51.0949664]},"properties":{"name":"№ 96 мектеп-гимназия","name:ru":"Школа-гимназия №96","osm_type":"way","osm_id":1455980758,"osm_version":null,"osm_updated_at":null,"osm_url":"https://www.openstreetmap.org/way/1455980758","source_tag":"amenity=school"}},{"type":"Feature","id":"way/1455980767","geometry":{"type":"Point","coordinates":[71.4285112,51.09284]},"properties":{"name":"Astana Garden International School","osm_type":"way","osm_id":1455980767,"osm_version":null,"osm_updated_at":null,"osm_url":"https://www.openstreetmap.org/way/1455980767","source_tag":"amenity=school"}},{"type":"Feature","id":"way/1456060925","geometry":{"type":"Point","coordinates":[71.4502023,51.0878729]},"properties":{"name":"Қаныш Сәтбаев атындағы Binom School мектеп-лицейі","name:ru":"школа-лицей Binom School имения Каныша Сатпаева","osm_type":"way","osm_id":1456060925,"osm_version":null,"osm_updated_at":null,"osm_url":"https://www.openstreetmap.org/way/1456060925","source_tag":"amenity=school"}},{"type":"Feature","id":"way/1456060930","geometry":{"type":"Point","coordinates":[71.453987,51.0941629]},"properties":{"name":"№95 мектеп-лицей","name:ru":"Школа-лицей №95","osm_type":"way","osm_id":1456060930,"osm_version":null,"osm_updated_at":null,"osm_url":"https://www.openstreetmap.org/way/1456060930","source_tag":"amenity=school"}},{"type":"Feature","id":"way/1456060943","geometry":{"type":"Point","coordinates":[71.4400056,51.0959036]},"properties":{"name":"№82 \"Дарын\" мамандандырылған лицейі","name:ru":"Специализированный лицей №82 \"Дарын\"","osm_type":"way","osm_id":1456060943,"osm_version":null,"osm_updated_at":null,"osm_url":"https://www.openstreetmap.org/way/1456060943","source_tag":"amenity=school"}},{"type":"Feature","id":"way/1456060962","geometry":{"type":"Point","coordinates":[71.4351667,51.1108579]},"properties":{"name":"№75 мектеп-гимназия","name:ru":"Школа-гимназия №75","osm_type":"way","osm_id":1456060962,"osm_version":null,"osm_updated_at":null,"osm_url":"https://www.openstreetmap.org/way/1456060962","source_tag":"amenity=school"}},{"type":"Feature","id":"way/1456060966","geometry":{"type":"Point","coordinates":[71.4292292,51.1117052]},"properties":{"name":"Әлихан Бөкейхан атындағы №76 мектеп-лицей","name:ru":"Школа-лицей №76 имени Алихана Бокейхана","osm_type":"way","osm_id":1456060966,"osm_version":null,"osm_updated_at":null,"osm_url":"https://www.openstreetmap.org/way/1456060966","source_tag":"amenity=school"}},{"type":"Feature","id":"way/1456208632","geometry":{"type":"Point","coordinates":[71.415037,51.099472]},"properties":{"name":"Шейх Халифа бен Заид әл-Нахаян атындағы №84 мектеп-лицей","name:ru":"Школа-лицей №84 имени шейха Халифа бен Заида аль-Нахаяна","osm_type":"way","osm_id":1456208632,"osm_version":null,"osm_updated_at":null,"osm_url":"https://www.openstreetmap.org/way/1456208632","source_tag":"amenity=school"}},{"type":"Feature","id":"way/1457450149","geometry":{"type":"Point","coordinates":[71.4242483,51.0983182]},"properties":{"name":"Астана қаласындағы халықаралық мектеп","name:ru":"Международная школа г. Астаны","osm_type":"way","osm_id":1457450149,"osm_version":null,"osm_updated_at":null,"osm_url":"https://www.openstreetmap.org/way/1457450149","source_tag":"amenity=school"}},{"type":"Feature","id":"way/1460088055","geometry":{"type":"Point","coordinates":[71.4101363,51.1001854]},"properties":{"name":"Шейх Тәмим бен Хамад әл-Тәни атындағы № 85 мектеп-лицей","name:ru":"Школа-лицей №85 им. шейха Тамима бен Хамада аль-Тани","osm_type":"way","osm_id":1460088055,"osm_version":null,"osm_updated_at":null,"osm_url":"https://www.openstreetmap.org/way/1460088055","source_tag":"amenity=school"}},{"type":"Feature","id":"way/1460139797","geometry":{"type":"Point","coordinates":[71.4463837,51.0956374]},"properties":{"name":"№107 жалпы орта білім беретін мектеп","name:ru":"Общеобразовательная школа №107","osm_type":"way","osm_id":1460139797,"osm_version":null,"osm_updated_at":null,"osm_url":"https://www.openstreetmap.org/way/1460139797","source_tag":"amenity=school"}},{"type":"Feature","id":"way/1460139798","geometry":{"type":"Point","coordinates":[71.4460323,51.0946602]},"properties":{"name":"Seed Uniker School","osm_type":"way","osm_id":1460139798,"osm_version":null,"osm_updated_at":null,"osm_url":"https://www.openstreetmap.org/way/1460139798","source_tag":"amenity=school"}},{"type":"Feature","id":"way/1460675880","geometry":{"type":"Point","coordinates":[71.4415962,51.104335]},"properties":{"name":"№104 жалпы орта білім беретін мектеп","name:ru":"Общеобразовательная школа №104","operator":"Астана қаласының Білім басқармасы","operator:type":"government","osm_type":"way","osm_id":1460675880,"osm_version":null,"osm_updated_at":null,"osm_url":"https://www.openstreetmap.org/way/1460675880","source_tag":"amenity=school"}},{"type":"Feature","id":"way/1460675882","geometry":{"type":"Point","coordinates":[71.4414304,51.1065501]},"properties":{"name":"№45 жалпы орта білім беретін мектеп","name:ru":"Общеобразовательная школа №45","operator":"Астана қаласының Білім басқармасы","operator:type":"government","osm_type":"way","osm_id":1460675882,"osm_version":null,"osm_updated_at":null,"osm_url":"https://www.openstreetmap.org/way/1460675882","source_tag":"amenity=school"}},{"type":"Feature","id":"way/1460675883","geometry":{"type":"Point","coordinates":[71.4484645,51.0996049]},"properties":{"name":"Қадыр Мырза Әлі атындағы Binom School мектеп-лицейі","name:ru":"Школа-лицей Binom School имени Кадыра Мырза Али","osm_type":"way","osm_id":1460675883,"osm_version":null,"osm_updated_at":null,"osm_url":"https://www.openstreetmap.org/way/1460675883","source_tag":"amenity=school"}},{"type":"Feature","id":"way/1461480265","geometry":{"type":"Point","coordinates":[71.4043037,51.1143619]},"properties":{"name":"№97 мектеп-гимназия","name:ru":"Школа-гимназия №97","osm_type":"way","osm_id":1461480265,"osm_version":null,"osm_updated_at":null,"osm_url":"https://www.openstreetmap.org/way/1461480265","source_tag":"amenity=school"}},{"type":"Feature","id":"way/1461497943","geometry":{"type":"Point","coordinates":[71.4371338,51.1154735]},"properties":{"name":"Фариза Оңғарсынова атындағы № 77 мектеп-гимназия","name:ru":"Школа-гимназия № 77 имени Фаризы Онгарсыновой","osm_type":"way","osm_id":1461497943,"osm_version":null,"osm_updated_at":null,"osm_url":"https://www.openstreetmap.org/way/1461497943","source_tag":"amenity=school"}},{"type":"Feature","id":"way/1461758834","geometry":{"type":"Point","coordinates":[71.4089881,51.1180719]},"properties":{"name":"Медицина мектебі","name:ru":"Школа медицины","operator":"Назарбаев университеті","osm_type":"way","osm_id":1461758834,"osm_version":null,"osm_updated_at":null,"osm_url":"https://www.openstreetmap.org/way/1461758834","source_tag":"amenity=school"}},{"type":"Feature","id":"way/1467797216","geometry":{"type":"Point","coordinates":[71.3734671,51.1319659]},"properties":{"name":"Qazbilim ұлттық лицейі","name:ru":"Национальный лицей Qazbilimі","name:kk":"Qazbilim ұлттық лицейі","osm_type":"way","osm_id":1467797216,"osm_version":null,"osm_updated_at":null,"osm_url":"https://www.openstreetmap.org/way/1467797216","source_tag":"amenity=school"}},{"type":"Feature","id":"way/1475410932","geometry":{"type":"Point","coordinates":[71.3850895,51.0983332]},"properties":{"name":"№ 45 жалпы орта білім беретін мектеп","name:ru":"Общеобразовательная школа №45","osm_type":"way","osm_id":1475410932,"osm_version":null,"osm_updated_at":null,"osm_url":"https://www.openstreetmap.org/way/1475410932","source_tag":"amenity=school"}},{"type":"Feature","id":"way/1475410939","geometry":{"type":"Point","coordinates":[71.3931875,51.1126198]},"properties":{"name":"№111 орта мектеп","name:ru":"Средняя школа №111","osm_type":"way","osm_id":1475410939,"osm_version":null,"osm_updated_at":null,"osm_url":"https://www.openstreetmap.org/way/1475410939","source_tag":"amenity=school"}},{"type":"Feature","id":"way/1475412307","geometry":{"type":"Point","coordinates":[71.4415385,51.0998803]},"properties":{"name":"K.E.R.N. School","addr:street":"Жошы хана","addr:housenumber":"10/1","addr:postcode":"010000","osm_type":"way","osm_id":1475412307,"osm_version":null,"osm_updated_at":null,"osm_url":"https://www.openstreetmap.org/way/1475412307","source_tag":"amenity=school"}},{"type":"Feature","id":"way/1478765472","geometry":{"type":"Point","coordinates":[71.3622923,51.1062041]},"properties":{"name":"Комфортная средняя школа №118","osm_type":"way","osm_id":1478765472,"osm_version":null,"osm_updated_at":null,"osm_url":"https://www.openstreetmap.org/way/1478765472","source_tag":"amenity=school"}},{"type":"Feature","id":"way/1478770896","geometry":{"type":"Point","coordinates":[71.3869718,51.108232]},"properties":{"name":"№9 \"Зерде\" мамандандырылған лицейі","name:ru":"Специализированный лицей №9 \"Зерде\"","addr:street":"Төле Би көшесі","addr:housenumber":"37/1","osm_type":"way","osm_id":1478770896,"osm_version":null,"osm_updated_at":null,"osm_url":"https://www.openstreetmap.org/way/1478770896","source_tag":"amenity=school"}},{"type":"Feature","id":"way/1479491291","geometry":{"type":"Point","coordinates":[71.362866,51.1234291]},"properties":{"osm_type":"way","osm_id":1479491291,"osm_version":null,"osm_updated_at":null,"osm_url":"https://www.openstreetmap.org/way/1479491291","source_tag":"amenity=school"}},{"type":"Feature","id":"way/1501398474","geometry":{"type":"Point","coordinates":[71.3654925,51.1293452]},"properties":{"name":"Смағұл Сәдуақасұлы атындағы №78 мектеп-гимназия","name:ru":"Школа-гимназия №78 имени Смагула Садуакасулы","addr:street":"улица Азильхана Нуршайыкова","addr:housenumber":"8","osm_type":"way","osm_id":1501398474,"osm_version":null,"osm_updated_at":null,"osm_url":"https://www.openstreetmap.org/way/1501398474","source_tag":"amenity=school"}},{"type":"Feature","id":"way/1501398475","geometry":{"type":"Point","coordinates":[71.3705133,51.1357273]},"properties":{"name":"Virere Education","osm_type":"way","osm_id":1501398475,"osm_version":null,"osm_updated_at":null,"osm_url":"https://www.openstreetmap.org/way/1501398475","source_tag":"amenity=school"}},{"type":"Feature","id":"way/1503562349","geometry":{"type":"Point","coordinates":[71.4615376,51.119612]},"properties":{"name":"№98 мектеп-лицей","addr:street":"Жұмекен Нәжімеденов көшесі","addr:housenumber":"8","osm_type":"way","osm_id":1503562349,"osm_version":null,"osm_updated_at":null,"osm_url":"https://www.openstreetmap.org/way/1503562349","source_tag":"amenity=school"}},{"type":"Feature","id":"way/1503619968","geometry":{"type":"Point","coordinates":[71.4833119,51.1234915]},"properties":{"name":"№72 мектеп-лицей","name:ru":"Школа-лицей №72","addr:street":"Ахмет Байтұрсынұлы көшесі","addr:housenumber":"25","osm_type":"way","osm_id":1503619968,"osm_version":null,"osm_updated_at":null,"osm_url":"https://www.openstreetmap.org/way/1503619968","source_tag":"amenity=school"}},{"type":"Feature","id":"way/1503619971","geometry":{"type":"Point","coordinates":[71.4953499,51.1216284]},"properties":{"name":"Ыбырай Алтынсарин атыңдағы №83 мектеп-гимназия","name:ru":"Школа-гимназия №83 имени Ибрая Алтынсарина","addr:street":"Ахмет Байтұрсынұлы көшесі","addr:housenumber":"35","osm_type":"way","osm_id":1503619971,"osm_version":null,"osm_updated_at":null,"osm_url":"https://www.openstreetmap.org/way/1503619971","source_tag":"amenity=school"}},{"type":"Feature","id":"way/1503619972","geometry":{"type":"Point","coordinates":[71.4890816,51.1158604]},"properties":{"name":"№ 93 мектеп-лицей","name:ru":"Школа-лицей № 93","addr:street":"Жұмекен Нәжімеденов көшесі","addr:housenumber":"24","osm_type":"way","osm_id":1503619972,"osm_version":null,"osm_updated_at":null,"osm_url":"https://www.openstreetmap.org/way/1503619972","source_tag":"amenity=school"}},{"type":"Feature","id":"way/1503619974","geometry":{"type":"Point","coordinates":[71.4756709,51.1139637]},"properties":{"name":"№73 мектеп-лицей","name:ru":"Школа-лицей №73","osm_type":"way","osm_id":1503619974,"osm_version":null,"osm_updated_at":null,"osm_url":"https://www.openstreetmap.org/way/1503619974","source_tag":"amenity=school"}},{"type":"Feature","id":"way/1503619975","geometry":{"type":"Point","coordinates":[71.459954,51.1131345]},"properties":{"name":"№91 мектеп-гимназия","name:ru":"Школа -гимназия №91","osm_type":"way","osm_id":1503619975,"osm_version":null,"osm_updated_at":null,"osm_url":"https://www.openstreetmap.org/way/1503619975","source_tag":"amenity=school"}},{"type":"Feature","id":"way/1504303316","geometry":{"type":"Point","coordinates":[71.4955865,51.0791981]},"properties":{"name":"№108 жайлы мектеп","name:ru":"Комфортная школа №108","osm_type":"way","osm_id":1504303316,"osm_version":null,"osm_updated_at":null,"osm_url":"https://www.openstreetmap.org/way/1504303316","source_tag":"amenity=school"}},{"type":"Feature","id":"way/1505708405","geometry":{"type":"Point","coordinates":[71.3852289,51.1424167]},"properties":{"name":"№79 мектеп-лицей","name:ru":"Школа-лицей №79","addr:street":"улица Максута Нарикбаева","addr:housenumber":"3","osm_type":"way","osm_id":1505708405,"osm_version":null,"osm_updated_at":null,"osm_url":"https://www.openstreetmap.org/way/1505708405","source_tag":"amenity=school"}},{"type":"Feature","id":"way/1505708407","geometry":{"type":"Point","coordinates":[71.3883326,51.1461848]},"properties":{"name":"QSI International School","osm_type":"way","osm_id":1505708407,"osm_version":null,"osm_updated_at":null,"osm_url":"https://www.openstreetmap.org/way/1505708407","source_tag":"amenity=school"}},{"type":"Feature","id":"way/1510503902","geometry":{"type":"Point","coordinates":[71.4375201,51.0729929]},"properties":{"name":"Қадыр Мырза Әлі атындағы №88 мектеп-лицей","name:ru":"Школа-лицей № 88 имени Кадыра Мырза Али","name:kk":"Қадыр Мырза Әлі атындағы №88 мектеп-лицей","osm_type":"way","osm_id":1510503902,"osm_version":null,"osm_updated_at":null,"osm_url":"https://www.openstreetmap.org/way/1510503902","source_tag":"amenity=school"}},{"type":"Feature","id":"way/1512939110","geometry":{"type":"Point","coordinates":[71.4148703,51.1433054]},"properties":{"name":"Ақан Құрманов атындағы №17 мектеп-гимназия","name:ru":"Школа-гимназии №17 имени Акана Курманова","osm_type":"way","osm_id":1512939110,"osm_version":null,"osm_updated_at":null,"osm_url":"https://www.openstreetmap.org/way/1512939110","source_tag":"amenity=school"}},{"type":"Feature","id":"way/1512939111","geometry":{"type":"Point","coordinates":[71.4066254,51.1611702]},"properties":{"name":"Шәкәрім атындағы №56 мектеп-лицей","name:ru":"Школа-лицей №56 имени Шакарима","name:kk":"Шәкәрім атындағы №56 мектеп-лицей","osm_type":"way","osm_id":1512939111,"osm_version":null,"osm_updated_at":null,"osm_url":"https://www.openstreetmap.org/way/1512939111","source_tag":"amenity=school"}},{"type":"Feature","id":"way/1512939113","geometry":{"type":"Point","coordinates":[71.4027714,51.1645762]},"properties":{"name":"Өзбекәлі Жәнібеков атындағы №11 мектеп-лицей","name:ru":"Школа-лицей №11 имени Узбекали Жанибекова","name:kk":"Өзбекәлі Жәнібеков атындағы №11 мектеп-лицей","osm_type":"way","osm_id":1512939113,"osm_version":null,"osm_updated_at":null,"osm_url":"https://www.openstreetmap.org/way/1512939113","source_tag":"amenity=school"}},{"type":"Feature","id":"way/1512939114","geometry":{"type":"Point","coordinates":[71.4049232,51.1672178]},"properties":{"name":"Нәзір Төреқұлов атындағы №35 мектеп-лицей","name:ru":"Школа-лицей № 35 имени Назира Торекулова","osm_type":"way","osm_id":1512939114,"osm_version":null,"osm_updated_at":null,"osm_url":"https://www.openstreetmap.org/way/1512939114","source_tag":"amenity=school"}},{"type":"Feature","id":"way/1512939116","geometry":{"type":"Point","coordinates":[71.40235,51.1710572]},"properties":{"name":"№60 мектеп-лицей","name:ru":"Школа-лицей №60","name:kk":"№60 мектеп-лицей","osm_type":"way","osm_id":1512939116,"osm_version":null,"osm_updated_at":null,"osm_url":"https://www.openstreetmap.org/way/1512939116","source_tag":"amenity=school"}},{"type":"Feature","id":"way/1512939123","geometry":{"type":"Point","coordinates":[71.4164782,51.1739219]},"properties":{"name":"№2 арнайы мектеп","name:ru":"Специальная школа №2","name:kk":"№2 арнайы мектеп","osm_type":"way","osm_id":1512939123,"osm_version":null,"osm_updated_at":null,"osm_url":"https://www.openstreetmap.org/way/1512939123","source_tag":"amenity=school"}},{"type":"Feature","id":"way/1512939125","geometry":{"type":"Point","coordinates":[71.424669,51.170525]},"properties":{"name":"№3 мектеп-гимназия","name:ru":"Школа-гимназия №3","name:kk":"№3 мектеп-гимназия","osm_type":"way","osm_id":1512939125,"osm_version":null,"osm_updated_at":null,"osm_url":"https://www.openstreetmap.org/way/1512939125","source_tag":"amenity=school"}},{"type":"Feature","id":"way/1512939127","geometry":{"type":"Point","coordinates":[71.4295889,51.1741353]},"properties":{"name":"Жамбыл Жабаев атындағы №4 мектеп-гимназия","name:ru":"Школа-гимназия №4 имени Жамбыла Жабаева","name:kk":"Жамбыл Жабаев атындағы №4 мектеп-гимназия","osm_type":"way","osm_id":1512939127,"osm_version":null,"osm_updated_at":null,"osm_url":"https://www.openstreetmap.org/way/1512939127","source_tag":"amenity=school"}},{"type":"Feature","id":"way/1512939129","geometry":{"type":"Point","coordinates":[71.4184994,51.1834844]},"properties":{"name":"№ 62 мектеп-лицей","name:ru":"Школа-лицей №62","name:kk":"№ 62 мектеп-лицей","osm_type":"way","osm_id":1512939129,"osm_version":null,"osm_updated_at":null,"osm_url":"https://www.openstreetmap.org/way/1512939129","source_tag":"amenity=school"}},{"type":"Feature","id":"way/1512939134","geometry":{"type":"Point","coordinates":[71.4019016,51.1907267]},"properties":{"name":"№2 \"Дарын\" облыстық мамандандырылған мектеп-лицей-интернаты","name:ru":"Областная специализированная школа-лицей-интернат №2 \"Дарын\"","name:kk":"№2 \"Дарын\" облыстық мамандандырылған мектеп-лицей-интернаты","osm_type":"way","osm_id":1512939134,"osm_version":null,"osm_updated_at":null,"osm_url":"https://www.openstreetmap.org/way/1512939134","source_tag":"amenity=school"}},{"type":"Feature","id":"way/1512939135","geometry":{"type":"Point","coordinates":[71.4122225,51.1916126]},"properties":{"name":"№25 орта мектеп","name:ru":"Средняя школа №25","name:kk":"№25 орта мектеп","osm_type":"way","osm_id":1512939135,"osm_version":null,"osm_updated_at":null,"osm_url":"https://www.openstreetmap.org/way/1512939135","source_tag":"amenity=school"}},{"type":"Feature","id":"way/1512939139","geometry":{"type":"Point","coordinates":[71.4176756,51.1872456]},"properties":{"name":"№46 балабақша-мектеп-гимназия","name:ru":"Детский сад-школа-гимназия №46","name:kk":"№46 балабақша-мектеп-гимназия","addr:street":"Әлия Молдағұлова көшесі","addr:housenumber":"35","osm_type":"way","osm_id":1512939139,"osm_version":null,"osm_updated_at":null,"osm_url":"https://www.openstreetmap.org/way/1512939139","source_tag":"amenity=school"}},{"type":"Feature","id":"way/1512942774","geometry":{"type":"Point","coordinates":[71.4326938,51.1668232]},"properties":{"name":"№31 мектеп-гимназия","name:ru":"Школа-гимназия №31","name:kk":"№31 мектеп-гимназия","osm_type":"way","osm_id":1512942774,"osm_version":null,"osm_updated_at":null,"osm_url":"https://www.openstreetmap.org/way/1512942774","source_tag":"amenity=school"}},{"type":"Feature","id":"way/1512942775","geometry":{"type":"Point","coordinates":[71.4380855,51.161332]},"properties":{"name":"Ақселеу Сейдімбек атындағы №54 мектеп-лицей","name:ru":"Школа-лицей №54 имени Акселеу Сейдимбека","name:kk":"Ақселеу Сейдімбек атындағы №54 мектеп-лицей","addr:street":"Шолпан Иманбаева көшесі","addr:housenumber":"4","osm_type":"way","osm_id":1512942775,"osm_version":null,"osm_updated_at":null,"osm_url":"https://www.openstreetmap.org/way/1512942775","source_tag":"amenity=school"}},{"type":"Feature","id":"way/1512942776","geometry":{"type":"Point","coordinates":[71.4316551,51.1596982]},"properties":{"name":"Жұмабек Тәшенев атындағы №10 мектеп-гимназия","name:ru":"Школа-гимназия №10 имени Жумабека Ташенева","name:kk":"Жұмабек Тәшенев атындағы №10 мектеп-гимназия","osm_type":"way","osm_id":1512942776,"osm_version":null,"osm_updated_at":null,"osm_url":"https://www.openstreetmap.org/way/1512942776","source_tag":"amenity=school"}},{"type":"Feature","id":"way/1513435667","geometry":{"type":"Point","coordinates":[71.3840053,51.1676194]},"properties":{"name":"С. Сейфуллин ат. №80 мектеп-гимназия","name:ru":"Школа-гимназия №80 им. С. Сейфуллина","name:kk":"С. Сейфуллин ат. №80 мектеп-гимназия","osm_type":"way","osm_id":1513435667,"osm_version":null,"osm_updated_at":null,"osm_url":"https://www.openstreetmap.org/way/1513435667","source_tag":"amenity=school"}},{"type":"Feature","id":"way/1513435668","geometry":{"type":"Point","coordinates":[71.3795364,51.1693626]},"properties":{"name":"І. Есенберлин ат. №67 гимназия","name:ru":"Гимназия №67 им. И. Есенберлина","name:kk":"І. Есенберлин ат. №67 гимназия","osm_type":"way","osm_id":1513435668,"osm_version":null,"osm_updated_at":null,"osm_url":"https://www.openstreetmap.org/way/1513435668","source_tag":"amenity=school"}},{"type":"Feature","id":"way/1513435671","geometry":{"type":"Point","coordinates":[71.3251761,51.1806546]},"properties":{"name":"№1 арнайы мектеп-интернаты","name:ru":"Специальная школа-интернат №1","name:kk":"№1 арнайы мектеп-интернаты","osm_type":"way","osm_id":1513435671,"osm_version":null,"osm_updated_at":null,"osm_url":"https://www.openstreetmap.org/way/1513435671","source_tag":"amenity=school"}},{"type":"Feature","id":"way/1513435673","geometry":{"type":"Point","coordinates":[71.427678,51.1786233]},"properties":{"name":"Ғ. Орманов ат. №7 мектеп-гимназия","name:ru":"Школа-гимназия №7 им. Г. Орманова","name:kk":"Ғ. Орманов ат. №7 мектеп-гимназия","osm_type":"way","osm_id":1513435673,"osm_version":null,"osm_updated_at":null,"osm_url":"https://www.openstreetmap.org/way/1513435673","source_tag":"amenity=school"}},{"type":"Feature","id":"way/1513435675","geometry":{"type":"Point","coordinates":[71.4470048,51.172984]},"properties":{"name":"№8 мектеп-лицей","name:ru":"Школа-лицей №8","name:kk":"№8 мектеп-лицей","osm_type":"way","osm_id":1513435675,"osm_version":null,"osm_updated_at":null,"osm_url":"https://www.openstreetmap.org/way/1513435675","source_tag":"amenity=school"}},{"type":"Feature","id":"way/1513435676","geometry":{"type":"Point","coordinates":[71.4566455,51.1659473]},"properties":{"name":"Т. Айбергенов ат. №16 жалпы орта білім беретін мектеп","name:ru":"Общеобразовательная школа №16 им. Т. Айбергенова","name:kk":"Т. Айбергенов ат. №16 жалпы орта білім беретін мектеп","osm_type":"way","osm_id":1513435676,"osm_version":null,"osm_updated_at":null,"osm_url":"https://www.openstreetmap.org/way/1513435676","source_tag":"amenity=school"}},{"type":"Feature","id":"way/1513435677","geometry":{"type":"Point","coordinates":[71.4555233,51.1630344]},"properties":{"name":"А. Құнанбайұлы ат. №87 мектеп-гимназия","name:ru":"Школа-гимназия №87 им. А. Қунанбайулы","name:kk":"А. Құнанбайұлы ат. №87 мектеп-гимназия","osm_type":"way","osm_id":1513435677,"osm_version":null,"osm_updated_at":null,"osm_url":"https://www.openstreetmap.org/way/1513435677","source_tag":"amenity=school"}},{"type":"Feature","id":"way/1513435680","geometry":{"type":"Point","coordinates":[71.4542573,51.1586639]},"properties":{"name":"№5 гимназия","name:ru":"Гимназия №5","name:kk":"№5 гимназия","osm_type":"way","osm_id":1513435680,"osm_version":null,"osm_updated_at":null,"osm_url":"https://www.openstreetmap.org/way/1513435680","source_tag":"amenity=school"}},{"type":"Feature","id":"way/1513435683","geometry":{"type":"Point","coordinates":[71.4414356,51.1552655]},"properties":{"name":"Қ. Қайсенов ат. №27 мектеп-лицей","name:ru":"Школа-лицей №27 им. К. Кайсенова","name:kk":"Қ. Қайсенов ат. №27 мектеп-лицей","osm_type":"way","osm_id":1513435683,"osm_version":null,"osm_updated_at":null,"osm_url":"https://www.openstreetmap.org/way/1513435683","source_tag":"amenity=school"}},{"type":"Feature","id":"way/1513435686","geometry":{"type":"Point","coordinates":[71.4711974,51.1535185]},"properties":{"name":"А. Байтұрсынұлы ат. №48 мектеп-лицей","name:ru":"Школа-лицей №48 им. А. Байтурсынулы","name:kk":"А. Байтұрсынұлы ат. №48 мектеп-лицей","osm_type":"way","osm_id":1513435686,"osm_version":null,"osm_updated_at":null,"osm_url":"https://www.openstreetmap.org/way/1513435686","source_tag":"amenity=school"}},{"type":"Feature","id":"way/1513435687","geometry":{"type":"Point","coordinates":[71.4760845,51.1534882]},"properties":{"name":"№22 мектеп-гимназия","name:ru":"Школа-гимназия №22","name:kk":"№22 мектеп-гимназия","osm_type":"way","osm_id":1513435687,"osm_version":null,"osm_updated_at":null,"osm_url":"https://www.openstreetmap.org/way/1513435687","source_tag":"amenity=school"}},{"type":"Feature","id":"way/1513435689","geometry":{"type":"Point","coordinates":[71.4665957,51.1501866]},"properties":{"name":"№30 мектеп-гимназия","name:ru":"Школа-гимназия №30","name:kk":"№30 мектеп-гимназия","osm_type":"way","osm_id":1513435689,"osm_version":null,"osm_updated_at":null,"osm_url":"https://www.openstreetmap.org/way/1513435689","source_tag":"amenity=school"}},{"type":"Feature","id":"way/1513435691","geometry":{"type":"Point","coordinates":[71.461658,51.1497811]},"properties":{"name":"№28 мектеп-лицей","name:ru":"Школа-лицей №28","name:kk":"№28 мектеп-лицей","addr:street":"улица Алексея Петрова","addr:housenumber":"8","osm_type":"way","osm_id":1513435691,"osm_version":null,"osm_updated_at":null,"osm_url":"https://www.openstreetmap.org/way/1513435691","source_tag":"amenity=school"}},{"type":"Feature","id":"way/1513435695","geometry":{"type":"Point","coordinates":[71.5180658,51.1505026]},"properties":{"name":"Б. Майлин ат. №52 мектеп-гимназия","name:ru":"Школа-гимназия №52 имени Б. Майлина","name:kk":"Б. Майлин ат. №52 мектеп-гимназия","osm_type":"way","osm_id":1513435695,"osm_version":null,"osm_updated_at":null,"osm_url":"https://www.openstreetmap.org/way/1513435695","source_tag":"amenity=school"}},{"type":"Feature","id":"way/1513435699","geometry":{"type":"Point","coordinates":[71.4932883,51.1559832]},"properties":{"name":"С. Мәуленов ат. №37 мектеп-лицей","name:ru":"Школа-лицей №37 и. С. Мауленова","name:kk":"С. Мәуленов ат. №37 мектеп-лицей","addr:street":"улица Куйши Дина","addr:housenumber":"44/3","osm_type":"way","osm_id":1513435699,"osm_version":null,"osm_updated_at":null,"osm_url":"https://www.openstreetmap.org/way/1513435699","source_tag":"amenity=school"}},{"type":"Feature","id":"way/1513435703","geometry":{"type":"Point","coordinates":[71.4805737,51.161525]},"properties":{"name":"№114 жалпы орта білім беретін мектеп","name:ru":"Общеобразовательная школа №114","name:kk":"№114 жалпы орта білім беретін мектеп","osm_type":"way","osm_id":1513435703,"osm_version":null,"osm_updated_at":null,"osm_url":"https://www.openstreetmap.org/way/1513435703","source_tag":"amenity=school"}},{"type":"Feature","id":"way/1513992057","geometry":{"type":"Point","coordinates":[71.4666509,51.1450828]},"properties":{"name":"Райымбек батыр ат. №50 \"Қазғарыш\" мектеп-лицей","name:ru":"Школа-лицей \"Қазгарыш\" №50 им. Райымбек батыра","name:kk":"Райымбек батыр ат. №50 \"Қазғарыш\" мектеп-лицей","osm_type":"way","osm_id":1513992057,"osm_version":null,"osm_updated_at":null,"osm_url":"https://www.openstreetmap.org/way/1513992057","source_tag":"amenity=school"}},{"type":"Feature","id":"way/1513992059","geometry":{"type":"Point","coordinates":[71.4809581,51.1435032]},"properties":{"name":"М. Шоқай ат. №51 мектеп-гимназия","name:ru":"Школа-гимназия №51 им. М. Шокая","osm_type":"way","osm_id":1513992059,"osm_version":null,"osm_updated_at":null,"osm_url":"https://www.openstreetmap.org/way/1513992059","source_tag":"amenity=school"}},{"type":"Feature","id":"way/1513992060","geometry":{"type":"Point","coordinates":[71.4645592,51.1338662]},"properties":{"name":"Т. Жүргенов ат. №70 мектеп-лицей","name:ru":"Школа-лицей №70 им. Т. Жургенова","name:kk":"Т. Жүргенов ат. №70 мектеп-лицей","osm_type":"way","osm_id":1513992060,"osm_version":null,"osm_updated_at":null,"osm_url":"https://www.openstreetmap.org/way/1513992060","source_tag":"amenity=school"}},{"type":"Feature","id":"way/1513992061","geometry":{"type":"Point","coordinates":[71.4622495,51.131691]},"properties":{"name":"Ақжан Әл-Машани ат. №92 мектеп-лицей","name:ru":"Школа-лицей №92 им. Ақжан Әл-Машани","name:kk":"Ақжан Әл-Машани ат. №92 мектеп-лицей","osm_type":"way","osm_id":1513992061,"osm_version":null,"osm_updated_at":null,"osm_url":"https://www.openstreetmap.org/way/1513992061","source_tag":"amenity=school"}},{"type":"Feature","id":"way/1513992067","geometry":{"type":"Point","coordinates":[71.4793348,51.1268663]},"properties":{"name":"Spectrum International School","addr:street":"Рақымжан Қошқарбаев даңғылы","addr:housenumber":"11","osm_type":"way","osm_id":1513992067,"osm_version":null,"osm_updated_at":null,"osm_url":"https://www.openstreetmap.org/way/1513992067","source_tag":"amenity=school"}},{"type":"Feature","id":"way/1513992068","geometry":{"type":"Point","coordinates":[71.4786437,51.1273893]},"properties":{"name":"Nurorda","osm_type":"way","osm_id":1513992068,"osm_version":null,"osm_updated_at":null,"osm_url":"https://www.openstreetmap.org/way/1513992068","source_tag":"amenity=school"}},{"type":"Feature","id":"way/1519562355","geometry":{"type":"Point","coordinates":[71.3818232,51.1987865]},"properties":{"name":"Қ. Сәтбаев ат. №61 мектеп-лицей","name:ru":"Школа-лицей №61 им. К. Сатпаева","name:kk":"Қ. Сәтбаев ат. №61 мектеп-лицей","osm_type":"way","osm_id":1519562355,"osm_version":null,"osm_updated_at":null,"osm_url":"https://www.openstreetmap.org/way/1519562355","source_tag":"amenity=school"}},{"type":"Feature","id":"way/1519562357","geometry":{"type":"Point","coordinates":[71.4493369,51.1650334]},"properties":{"name":"№119 жалпы орта білім беретін мектеп","name:ru":"Общеобразовательная школа №119","name:kk":"№119 жалпы орта білім беретін мектеп","osm_type":"way","osm_id":1519562357,"osm_version":null,"osm_updated_at":null,"osm_url":"https://www.openstreetmap.org/way/1519562357","source_tag":"amenity=school"}},{"type":"Feature","id":"way/1523427656","geometry":{"type":"Point","coordinates":[71.3730955,51.0045008]},"properties":{"name":"№2 жалпы орта білім беретін мектебі","name:ru":"Общеобразовательная школа №2","name:kk":"№2 жалпы орта білім беретін мектебі","osm_type":"way","osm_id":1523427656,"osm_version":null,"osm_updated_at":null,"osm_url":"https://www.openstreetmap.org/way/1523427656","source_tag":"amenity=school"}},{"type":"Feature","id":"way/1523427658","geometry":{"type":"Point","coordinates":[71.3691876,51.0076409]},"properties":{"name":"Мектеп-гимназия","name:ru":"Школа-гимназия","name:kk":"Мектеп-гимназия","osm_type":"way","osm_id":1523427658,"osm_version":null,"osm_updated_at":null,"osm_url":"https://www.openstreetmap.org/way/1523427658","source_tag":"amenity=school"}},{"type":"Feature","id":"way/1527868438","geometry":{"type":"Point","coordinates":[71.4359414,51.1314651]},"properties":{"name":"Д. Қонаев ат. №66 мектеп-лицей","name:ru":"Школа-лицей №66 им. Д. Кунаева","name:kk":"Д. Қонаев ат. №66 мектеп-лицей","addr:street":"Қонаев көшесі","addr:housenumber":"33/1","osm_type":"way","osm_id":1527868438,"osm_version":null,"osm_updated_at":null,"osm_url":"https://www.openstreetmap.org/way/1527868438","source_tag":"amenity=school"}},{"type":"Feature","id":"way/1529916152","geometry":{"type":"Point","coordinates":[71.5033402,51.1520018]},"properties":{"name":"Ә. Ермеков ат. №38 мектеп-лицей","name:ru":"Школа-лицей №38 им. А. Ермекова","name:kk":"Ә. Ермеков ат. №38 мектеп-лицей","osm_type":"way","osm_id":1529916152,"osm_version":null,"osm_updated_at":null,"osm_url":"https://www.openstreetmap.org/way/1529916152","source_tag":"amenity=school"}},{"type":"Feature","id":"way/1529916153","geometry":{"type":"Point","coordinates":[71.5029885,51.1572087]},"properties":{"name":"С. Қожанов ат. №64 мектеп-лицей","name:ru":"Школа-лицей №64 им. С. Кожанова","name:kk":"С. Қожанов ат. №64 мектеп-лицей","addr:street":"Ғабит Мүсірепов көшесі","addr:housenumber":"15","osm_type":"way","osm_id":1529916153,"osm_version":null,"osm_updated_at":null,"osm_url":"https://www.openstreetmap.org/way/1529916153","source_tag":"amenity=school"}},{"type":"Feature","id":"way/1529999678","geometry":{"type":"Point","coordinates":[71.5257651,51.1475504]},"properties":{"name":"Ш. Мұртаза ат. №63 мектеп-гимназия","name:ru":"Школа-гимназия №63 им. Ш. Муртазы","name:kk":"Ш. Мұртаза ат. №63 мектеп-гимназия","osm_type":"way","osm_id":1529999678,"osm_version":null,"osm_updated_at":null,"osm_url":"https://www.openstreetmap.org/way/1529999678","source_tag":"amenity=school"}},{"type":"Feature","id":"way/1530008284","geometry":{"type":"Point","coordinates":[71.5076133,51.120356]},"properties":{"name":"М. Әуезов ат. №86 мектеп-гимназия","osm_type":"way","osm_id":1530008284,"osm_version":null,"osm_updated_at":null,"osm_url":"https://www.openstreetmap.org/way/1530008284","source_tag":"amenity=school"}},{"type":"Feature","id":"way/1530008287","geometry":{"type":"Point","coordinates":[71.5025309,51.1249809]},"properties":{"name":"М. Мақатаев ат. №74 мектеп-гимназия","name:ru":"Школа-гимназия №74 им. М. Макатаева","name:kk":"М. Мақатаев ат. №74 мектеп-гимназия","osm_type":"way","osm_id":1530008287,"osm_version":null,"osm_updated_at":null,"osm_url":"https://www.openstreetmap.org/way/1530008287","source_tag":"amenity=school"}},{"type":"Feature","id":"way/1530008298","geometry":{"type":"Point","coordinates":[71.4526741,51.1318335]},"properties":{"name":"Riviera International School","addr:street":"Бауыржан Момышұлы даңғылы","addr:housenumber":"1/1","addr:postcode":"010000","osm_type":"way","osm_id":1530008298,"osm_version":null,"osm_updated_at":null,"osm_url":"https://www.openstreetmap.org/way/1530008298","source_tag":"amenity=school"}},{"type":"Feature","id":"way/1530014506","geometry":{"type":"Point","coordinates":[71.3995277,51.1762222]},"properties":{"name":"№18 жалпы орта білім беретін мектеп","name:ru":"Общеобразовательная школа №18","name:kk":"№18 жалпы орта білім беретін мектеп","osm_type":"way","osm_id":1530014506,"osm_version":null,"osm_updated_at":null,"osm_url":"https://www.openstreetmap.org/way/1530014506","source_tag":"amenity=school"}},{"type":"Feature","id":"way/1530014507","geometry":{"type":"Point","coordinates":[71.4023864,51.18138]},"properties":{"name":"№14 мектеп-гимназия","name:ru":"Школа-гимназия №14","name:kk":"№14 мектеп-гимназия","osm_type":"way","osm_id":1530014507,"osm_version":null,"osm_updated_at":null,"osm_url":"https://www.openstreetmap.org/way/1530014507","source_tag":"amenity=school"}},{"type":"Feature","id":"way/1530014511","geometry":{"type":"Point","coordinates":[71.379149,51.1915736]},"properties":{"name":"Ш. Айманов ат. №20 жалпы орта білім беретін мектеп","name:ru":"Общеобразовательная школа №20 им. Ш. Айманова","name:kk":"Ш. Айманов ат. №20 жалпы орта білім беретін мектеп","osm_type":"way","osm_id":1530014511,"osm_version":null,"osm_updated_at":null,"osm_url":"https://www.openstreetmap.org/way/1530014511","source_tag":"amenity=school"}},{"type":"Feature","id":"way/1530014512","geometry":{"type":"Point","coordinates":[71.3706466,51.1971449]},"properties":{"name":"№19 жалпы орта білім беретін мектеп","name:ru":"Общеобразовательная школа №19","name:kk":"№19 жалпы орта білім беретін мектеп","addr:street":"Шәңгерей Бөкеев көшесі","addr:housenumber":"50","osm_type":"way","osm_id":1530014512,"osm_version":null,"osm_updated_at":null,"osm_url":"https://www.openstreetmap.org/way/1530014512","source_tag":"amenity=school"}},{"type":"Feature","id":"way/1531192447","geometry":{"type":"Point","coordinates":[71.4355603,51.0975646]},"properties":{"name":"Seed School","addr:street":"Бұқар Жырау көшесі","addr:housenumber":"34/3","osm_type":"way","osm_id":1531192447,"osm_version":null,"osm_updated_at":null,"osm_url":"https://www.openstreetmap.org/way/1531192447","source_tag":"amenity=school"}},{"type":"Feature","id":"way/1531192466","geometry":{"type":"Point","coordinates":[71.4338559,51.0996121]},"properties":{"name":"Smart Creative School","addr:street":"Бұқар Жырау көшесі","addr:housenumber":"21","osm_type":"way","osm_id":1531192466,"osm_version":null,"osm_updated_at":null,"osm_url":"https://www.openstreetmap.org/way/1531192466","source_tag":"amenity=school"}},{"type":"Feature","id":"way/1531404935","geometry":{"type":"Point","coordinates":[71.4760196,51.1374933]},"properties":{"name":"Б. Момышұлы ат. №53 мектеп-лицей","name:ru":"Школа-лицей №53 им. Б. Момышулы","addr:street":"Қарқабат көшесі","addr:housenumber":"17","osm_type":"way","osm_id":1531404935,"osm_version":null,"osm_updated_at":null,"osm_url":"https://www.openstreetmap.org/way/1531404935","source_tag":"amenity=school"}},{"type":"Feature","id":"way/1531494270","geometry":{"type":"Point","coordinates":[71.6451931,51.2859637]},"properties":{"name":"№1 жалпы орта білім беретін мектеп","name:ru":"Общеобразовательная школа №1","name:kk":"№1 жалпы орта білім беретін мектеп","addr:street":"Әл-Фараби көшесі","addr:housenumber":"1А","osm_type":"way","osm_id":1531494270,"osm_version":null,"osm_updated_at":null,"osm_url":"https://www.openstreetmap.org/way/1531494270","source_tag":"amenity=school"}},{"type":"Feature","id":"way/1531630216","geometry":{"type":"Point","coordinates":[71.2546165,51.1287727]},"properties":{"name":"К. Ақышев ат. №69 мектеп-гимназия","name:ru":"Школа-гимназия №69 им. К. Акишева","addr:street":"Исатай батыр көшесі","addr:housenumber":"141/1","osm_type":"way","osm_id":1531630216,"osm_version":null,"osm_updated_at":null,"osm_url":"https://www.openstreetmap.org/way/1531630216","source_tag":"amenity=school"}},{"type":"Feature","id":"way/1531630225","geometry":{"type":"Point","coordinates":[71.2900809,51.1364867]},"properties":{"name":"Т. Кәкішұлы ат. №94 мектеп-лицей","osm_type":"way","osm_id":1531630225,"osm_version":null,"osm_updated_at":null,"osm_url":"https://www.openstreetmap.org/way/1531630225","source_tag":"amenity=school"}},{"type":"Feature","id":"way/1531630229","geometry":{"type":"Point","coordinates":[71.2432588,51.1169785]},"properties":{"name":"№33 жалпы орта білім беретін мектеп","addr:street":"Наурызбай Батыр көшесі","addr:housenumber":"10","osm_type":"way","osm_id":1531630229,"osm_version":null,"osm_updated_at":null,"osm_url":"https://www.openstreetmap.org/way/1531630229","source_tag":"amenity=school"}},{"type":"Feature","id":"way/1531630236","geometry":{"type":"Point","coordinates":[71.215919,51.1252911]},"properties":{"name":"№2 жалпы орта білім беретін мектеп","addr:street":"Кенесары Хан көшесі","addr:housenumber":"2Д","osm_type":"way","osm_id":1531630236,"osm_version":null,"osm_updated_at":null,"osm_url":"https://www.openstreetmap.org/way/1531630236","source_tag":"amenity=school"}},{"type":"Feature","id":"way/1531630237","geometry":{"type":"Point","coordinates":[71.2130855,51.118629]},"properties":{"name":"№1 жалпы орта білім беретін мекте","osm_type":"way","osm_id":1531630237,"osm_version":null,"osm_updated_at":null,"osm_url":"https://www.openstreetmap.org/way/1531630237","source_tag":"amenity=school"}},{"type":"Feature","id":"way/1531635583","geometry":{"type":"Point","coordinates":[71.5255685,51.1166961]},"properties":{"osm_type":"way","osm_id":1531635583,"osm_version":null,"osm_updated_at":null,"osm_url":"https://www.openstreetmap.org/way/1531635583","source_tag":"amenity=school"}},{"type":"Feature","id":"way/1531635591","geometry":{"type":"Point","coordinates":[71.5185637,51.117842]},"properties":{"name":"А. Байтұрсынұлы ат. Binom School","name:ru":"Binom School им. А. Байтурсынулы","addr:street":"Ахмет Байтұрсынов даңғылы","addr:housenumber":"49А","osm_type":"way","osm_id":1531635591,"osm_version":null,"osm_updated_at":null,"osm_url":"https://www.openstreetmap.org/way/1531635591","source_tag":"amenity=school"}},{"type":"Feature","id":"way/1534637204","geometry":{"type":"Point","coordinates":[71.3769524,51.0798336]},"properties":{"osm_type":"way","osm_id":1534637204,"osm_version":null,"osm_updated_at":null,"osm_url":"https://www.openstreetmap.org/way/1534637204","source_tag":"amenity=school"}},{"type":"Feature","id":"way/1547014763","geometry":{"type":"Point","coordinates":[71.5649097,51.1274275]},"properties":{"osm_type":"way","osm_id":1547014763,"osm_version":null,"osm_updated_at":null,"osm_url":"https://www.openstreetmap.org/way/1547014763","source_tag":"amenity=school"}},{"type":"Feature","id":"way/1547181710","geometry":{"type":"Point","coordinates":[71.3466083,51.1499247]},"properties":{"osm_type":"way","osm_id":1547181710,"osm_version":null,"osm_updated_at":null,"osm_url":"https://www.openstreetmap.org/way/1547181710","source_tag":"amenity=school"}},{"type":"Feature","id":"way/1548133821","geometry":{"type":"Point","coordinates":[71.3869921,51.1041072]},"properties":{"osm_type":"way","osm_id":1548133821,"osm_version":null,"osm_updated_at":null,"osm_url":"https://www.openstreetmap.org/way/1548133821","source_tag":"amenity=school"}},{"type":"Feature","id":"way/1551778155","geometry":{"type":"Point","coordinates":[71.3662896,51.1694931]},"properties":{"osm_type":"way","osm_id":1551778155,"osm_version":null,"osm_updated_at":null,"osm_url":"https://www.openstreetmap.org/way/1551778155","source_tag":"amenity=school"}},{"type":"Feature","id":"relation/3464850","geometry":{"type":"Point","coordinates":[71.4846275,51.1580212]},"properties":{"addr:street":"Абылай Хан даңғылы","addr:housenumber":"25/3","osm_type":"relation","osm_id":3464850,"osm_version":null,"osm_updated_at":null,"osm_url":"https://www.openstreetmap.org/relation/3464850","source_tag":"amenity=school"}}]}
